<?xml version="1.0" encoding="UTF-8"?>
<ndm xmlns:xsi="http://www.w3.org/2001/XMLSchema-instance" xsi:noNamespaceSchemaLocation="https://sanaregistry.org/r/ndmxml_unqualified/ndmxml-2.0.0-master-2.0.xsd">
<omm id="CCSDS_OMM_VERS" version="2.0">
<header><CREATION_DATE/><ORIGINATOR/></header><body><segment><metadata><OBJECT_NAME>KUIPER-00039</OBJECT_NAME><OBJECT_ID>2025-134A</OBJECT_ID><CENTER_NAME>EARTH</CENTER_NAME><REF_FRAME>TEME</REF_FRAME><TIME_SYSTEM>UTC</TIME_SYSTEM><MEAN_ELEMENT_THEORY>SGP4</MEAN_ELEMENT_THEORY></metadata><data><meanElements><EPOCH>2026-01-01T20:14:11.019840</EPOCH><MEAN_MOTION>14.79957373</MEAN_MOTION><ECCENTRICITY>.0011537</ECCENTRICITY><INCLINATION>51.8991</INCLINATION><RA_OF_ASC_NODE>168.6773</RA_OF_ASC_NODE><ARG_OF_PERICENTER>68.5182</ARG_OF_PERICENTER><MEAN_ANOMALY>291.7010</MEAN_ANOMALY></meanElements><tleParameters><EPHEMERIS_TYPE>0</EPHEMERIS_TYPE><CLASSIFICATION_TYPE>U</CLASSIFICATION_TYPE><NORAD_CAT_ID>64500</NORAD_CAT_ID><ELEMENT_SET_NO>999</ELEMENT_SET_NO><REV_AT_EPOCH>3017</REV_AT_EPOCH><BSTAR>.84685E-3</BSTAR><MEAN_MOTION_DOT>.6248E-4</MEAN_MOTION_DOT><MEAN_MOTION_DDOT>0</MEAN_MOTION_DDOT></tleParameters></data></segment></body></omm>
<omm id="CCSDS_OMM_VERS" version="2.0">
<header><CREATION_DATE/><ORIGINATOR/></header><body><segment><metadata><OBJECT_NAME>KUIPER-00040</OBJECT_NAME><OBJECT_ID>2025-134B</OBJECT_ID><CENTER_NAME>EARTH</CENTER_NAME><REF_FRAME>TEME</REF_FRAME><TIME_SYSTEM>UTC</TIME_SYSTEM><MEAN_ELEMENT_THEORY>SGP4</MEAN_ELEMENT_THEORY></metadata><data><meanElements><EPOCH>2026-01-01T16:41:55.366080</EPOCH><MEAN_MOTION>14.79915471</MEAN_MOTION><ECCENTRICITY>.0016764</ECCENTRICITY><INCLINATION>51.8986</INCLINATION><RA_OF_ASC_NODE>180.4831</RA_OF_ASC_NODE><ARG_OF_PERICENTER>48.7402</ARG_OF_PERICENTER><MEAN_ANOMALY>311.5001</MEAN_ANOMALY></meanElements><tleParameters><EPHEMERIS_TYPE>0</EPHEMERIS_TYPE><CLASSIFICATION_TYPE>U</CLASSIFICATION_TYPE><NORAD_CAT_ID>64501</NORAD_CAT_ID><ELEMENT_SET_NO>999</ELEMENT_SET_NO><REV_AT_EPOCH>2999</REV_AT_EPOCH><BSTAR>.7209E-3</BSTAR><MEAN_MOTION_DOT>.5285E-4</MEAN_MOTION_DOT><MEAN_MOTION_DDOT>0</MEAN_MOTION_DDOT></tleParameters></data></segment></body></omm>
<omm id="CCSDS_OMM_VERS" version="2.0">
<header><CREATION_DATE/><ORIGINATOR/></header><body><segment><metadata><OBJECT_NAME>KUIPER-00041</OBJECT_NAME><OBJECT_ID>2025-134C</OBJECT_ID><CENTER_NAME>EARTH</CENTER_NAME><REF_FRAME>TEME</REF_FRAME><TIME_SYSTEM>UTC</TIME_SYSTEM><MEAN_ELEMENT_THEORY>SGP4</MEAN_ELEMENT_THEORY></metadata><data><meanElements><EPOCH>2026-01-01T16:40:24.305664</EPOCH><MEAN_MOTION>14.79943437</MEAN_MOTION><ECCENTRICITY>.0012663</ECCENTRICITY><INCLINATION>51.8985</INCLINATION><RA_OF_ASC_NODE>181.8450</RA_OF_ASC_NODE><ARG_OF_PERICENTER>47.8427</ARG_OF_PERICENTER><MEAN_ANOMALY>312.3609</MEAN_ANOMALY></meanElements><tleParameters><EPHEMERIS_TYPE>0</EPHEMERIS_TYPE><CLASSIFICATION_TYPE>U</CLASSIFICATION_TYPE><NORAD_CAT_ID>64502</NORAD_CAT_ID><ELEMENT_SET_NO>999</ELEMENT_SET_NO><REV_AT_EPOCH>2997</REV_AT_EPOCH><BSTAR>.17458E-2</BSTAR><MEAN_MOTION_DOT>.13131E-3</MEAN_MOTION_DOT><MEAN_MOTION_DDOT>0</MEAN_MOTION_DDOT></tleParameters></data></segment></body></omm>
<omm id="CCSDS_OMM_VERS" version="2.0">
<header><CREATION_DATE/><ORIGINATOR/></header><body><segment><metadata><OBJECT_NAME>KUIPER-00042</OBJECT_NAME><OBJECT_ID>2025-134D</OBJECT_ID><CENTER_NAME>EARTH</CENTER_NAME><REF_FRAME>TEME</REF_FRAME><TIME_SYSTEM>UTC</TIME_SYSTEM><MEAN_ELEMENT_THEORY>SGP4</MEAN_ELEMENT_THEORY></metadata><data><meanElements><EPOCH>2026-01-01T16:45:44.349408</EPOCH><MEAN_MOTION>14.79978805</MEAN_MOTION><ECCENTRICITY>.0012892</ECCENTRICITY><INCLINATION>51.8972</INCLINATION><RA_OF_ASC_NODE>177.8302</RA_OF_ASC_NODE><ARG_OF_PERICENTER>59.0429</ARG_OF_PERICENTER><MEAN_ANOMALY>301.1799</MEAN_ANOMALY></meanElements><tleParameters><EPHEMERIS_TYPE>0</EPHEMERIS_TYPE><CLASSIFICATION_TYPE>U</CLASSIFICATION_TYPE><NORAD_CAT_ID>64503</NORAD_CAT_ID><ELEMENT_SET_NO>999</ELEMENT_SET_NO><REV_AT_EPOCH>3003</REV_AT_EPOCH><BSTAR>.72617E-3</BSTAR><MEAN_MOTION_DOT>.5329E-4</MEAN_MOTION_DOT><MEAN_MOTION_DDOT>0</MEAN_MOTION_DDOT></tleParameters></data></segment></body></omm>
<omm id="CCSDS_OMM_VERS" version="2.0">
<header><CREATION_DATE/><ORIGINATOR/></header><body><segment><metadata><OBJECT_NAME>KUIPER-00043</OBJECT_NAME><OBJECT_ID>2025-134E</OBJECT_ID><CENTER_NAME>EARTH</CENTER_NAME><REF_FRAME>TEME</REF_FRAME><TIME_SYSTEM>UTC</TIME_SYSTEM><MEAN_ELEMENT_THEORY>SGP4</MEAN_ELEMENT_THEORY></metadata><data><meanElements><EPOCH>2026-01-01T20:11:51.648000</EPOCH><MEAN_MOTION>14.79902902</MEAN_MOTION><ECCENTRICITY>.0003536</ECCENTRICITY><INCLINATION>51.9010</INCLINATION><RA_OF_ASC_NODE>169.6478</RA_OF_ASC_NODE><ARG_OF_PERICENTER>81.0336</ARG_OF_PERICENTER><MEAN_ANOMALY>279.1026</MEAN_ANOMALY></meanElements><tleParameters><EPHEMERIS_TYPE>0</EPHEMERIS_TYPE><CLASSIFICATION_TYPE>U</CLASSIFICATION_TYPE><NORAD_CAT_ID>64504</NORAD_CAT_ID><ELEMENT_SET_NO>999</ELEMENT_SET_NO><REV_AT_EPOCH>3016</REV_AT_EPOCH><BSTAR>-.19682E-3</BSTAR><MEAN_MOTION_DOT>-.1721E-4</MEAN_MOTION_DOT><MEAN_MOTION_DDOT>0</MEAN_MOTION_DDOT></tleParameters></data></segment></body></omm>
<omm id="CCSDS_OMM_VERS" version="2.0">
<header><CREATION_DATE/><ORIGINATOR/></header><body><segment><metadata><OBJECT_NAME>KUIPER-00044</OBJECT_NAME><OBJECT_ID>2025-134F</OBJECT_ID><CENTER_NAME>EARTH</CENTER_NAME><REF_FRAME>TEME</REF_FRAME><TIME_SYSTEM>UTC</TIME_SYSTEM><MEAN_ELEMENT_THEORY>SGP4</MEAN_ELEMENT_THEORY></metadata><data><meanElements><EPOCH>2026-01-01T16:38:00.639744</EPOCH><MEAN_MOTION>14.79922864</MEAN_MOTION><ECCENTRICITY>.001211</ECCENTRICITY><INCLINATION>51.8970</INCLINATION><RA_OF_ASC_NODE>182.8520</RA_OF_ASC_NODE><ARG_OF_PERICENTER>54.2762</ARG_OF_PERICENTER><MEAN_ANOMALY>305.9325</MEAN_ANOMALY></meanElements><tleParameters><EPHEMERIS_TYPE>0</EPHEMERIS_TYPE><CLASSIFICATION_TYPE>U</CLASSIFICATION_TYPE><NORAD_CAT_ID>64505</NORAD_CAT_ID><ELEMENT_SET_NO>999</ELEMENT_SET_NO><REV_AT_EPOCH>2996</REV_AT_EPOCH><BSTAR>.73332E-3</BSTAR><MEAN_MOTION_DOT>.5376E-4</MEAN_MOTION_DOT><MEAN_MOTION_DDOT>0</MEAN_MOTION_DDOT></tleParameters></data></segment></body></omm>
<omm id="CCSDS_OMM_VERS" version="2.0">
<header><CREATION_DATE/><ORIGINATOR/></header><body><segment><metadata><OBJECT_NAME>KUIPER-00046</OBJECT_NAME><OBJECT_ID>2025-134G</OBJECT_ID><CENTER_NAME>EARTH</CENTER_NAME><REF_FRAME>TEME</REF_FRAME><TIME_SYSTEM>UTC</TIME_SYSTEM><MEAN_ELEMENT_THEORY>SGP4</MEAN_ELEMENT_THEORY></metadata><data><meanElements><EPOCH>2026-01-01T16:16:57.170208</EPOCH><MEAN_MOTION>14.80760099</MEAN_MOTION><ECCENTRICITY>.0013093</ECCENTRICITY><INCLINATION>51.8981</INCLINATION><RA_OF_ASC_NODE>179.1876</RA_OF_ASC_NODE><ARG_OF_PERICENTER>62.0072</ARG_OF_PERICENTER><MEAN_ANOMALY>298.2214</MEAN_ANOMALY></meanElements><tleParameters><EPHEMERIS_TYPE>0</EPHEMERIS_TYPE><CLASSIFICATION_TYPE>U</CLASSIFICATION_TYPE><NORAD_CAT_ID>64506</NORAD_CAT_ID><ELEMENT_SET_NO>999</ELEMENT_SET_NO><REV_AT_EPOCH>3001</REV_AT_EPOCH><BSTAR>.74539E-3</BSTAR><MEAN_MOTION_DOT>.5582E-4</MEAN_MOTION_DOT><MEAN_MOTION_DDOT>0</MEAN_MOTION_DDOT></tleParameters></data></segment></body></omm>
<omm id="CCSDS_OMM_VERS" version="2.0">
<header><CREATION_DATE/><ORIGINATOR/></header><body><segment><metadata><OBJECT_NAME>KUIPER-00047</OBJECT_NAME><OBJECT_ID>2025-134H</OBJECT_ID><CENTER_NAME>EARTH</CENTER_NAME><REF_FRAME>TEME</REF_FRAME><TIME_SYSTEM>UTC</TIME_SYSTEM><MEAN_ELEMENT_THEORY>SGP4</MEAN_ELEMENT_THEORY></metadata><data><meanElements><EPOCH>2026-01-01T20:00:03.000384</EPOCH><MEAN_MOTION>14.77140416</MEAN_MOTION><ECCENTRICITY>.0000825</ECCENTRICITY><INCLINATION>51.8972</INCLINATION><RA_OF_ASC_NODE>150.0853</RA_OF_ASC_NODE><ARG_OF_PERICENTER>321.9656</ARG_OF_PERICENTER><MEAN_ANOMALY>286.3236</MEAN_ANOMALY></meanElements><tleParameters><EPHEMERIS_TYPE>0</EPHEMERIS_TYPE><CLASSIFICATION_TYPE>U</CLASSIFICATION_TYPE><NORAD_CAT_ID>64507</NORAD_CAT_ID><ELEMENT_SET_NO>999</ELEMENT_SET_NO><REV_AT_EPOCH>517</REV_AT_EPOCH><BSTAR>.52334E-2</BSTAR><MEAN_MOTION_DOT>.37339E-3</MEAN_MOTION_DOT><MEAN_MOTION_DDOT>0</MEAN_MOTION_DDOT></tleParameters></data></segment></body></omm>
<omm id="CCSDS_OMM_VERS" version="2.0">
<header><CREATION_DATE/><ORIGINATOR/></header><body><segment><metadata><OBJECT_NAME>KUIPER-00048</OBJECT_NAME><OBJECT_ID>2025-134J</OBJECT_ID><CENTER_NAME>EARTH</CENTER_NAME><REF_FRAME>TEME</REF_FRAME><TIME_SYSTEM>UTC</TIME_SYSTEM><MEAN_ELEMENT_THEORY>SGP4</MEAN_ELEMENT_THEORY></metadata><data><meanElements><EPOCH>2026-01-01T15:49:35.164128</EPOCH><MEAN_MOTION>14.79901687</MEAN_MOTION><ECCENTRICITY>.0002282</ECCENTRICITY><INCLINATION>51.8976</INCLINATION><RA_OF_ASC_NODE>151.9903</RA_OF_ASC_NODE><ARG_OF_PERICENTER>211.1398</ARG_OF_PERICENTER><MEAN_ANOMALY>148.9429</MEAN_ANOMALY></meanElements><tleParameters><EPHEMERIS_TYPE>0</EPHEMERIS_TYPE><CLASSIFICATION_TYPE>U</CLASSIFICATION_TYPE><NORAD_CAT_ID>64508</NORAD_CAT_ID><ELEMENT_SET_NO>999</ELEMENT_SET_NO><REV_AT_EPOCH>3039</REV_AT_EPOCH><BSTAR>-.75389E-3</BSTAR><MEAN_MOTION_DOT>-.5959E-4</MEAN_MOTION_DOT><MEAN_MOTION_DDOT>0</MEAN_MOTION_DDOT></tleParameters></data></segment></body></omm>

</ndm>
